NORAD_CAT_ID,OBJECT_NAME,OBJECT_TYPE,EPOCH,MEAN_MOTION,ECCENTRICITY,INCLINATION,RA_OF_ASC_NODE,ARG_OF_PERICENTER,MEAN_ANOMALY,BSTAR,MEAN_MOTION_DOT,MEAN_MOTION_DDOT,TLE_LINE0,TLE_LINE1,TLE_LINE2,SEMIMAJOR_AXIS,PERIOD,APOGEE,PERIGEE,DECAYED
51869.0,STARLINK-3588,PAYLOAD,2024-07-05 08:39:59,15.08842528,0.0001378,53.2154,237.9728,81.5575,278.5573,3.47e-05,2.64e-06,0.0,0 STARLINK-3588,1 51869U 22022T   24187.36110185  .00000264  00000-0  34700-4 0  9994,2 51869  53.2154 237.9728 0001378  81.5575 278.5573 15.08842528130676,6917.873,95.437,540.691,538.784,0.0
51869.0,STARLINK-3588,PAYLOAD,2024-07-05 19:47:41,15.08832329,0.0001488,53.2148,235.8891,87.458,272.6582,0.00037352,5.66e-05,0.0,0 STARLINK-3588,1 51869U 22022T   24187.82478879  .00005660  00000-0  37352-3 0  9992,2 51869  53.2148 235.8891 0001488  87.4580 272.6582 15.08832329130741,6917.904,95.438,540.798,538.739,0.0
51869.0,STARLINK-3588,PAYLOAD,2024-07-06 13:16:56,15.08836676,0.0001389,53.218,232.6216,92.0289,268.0862,-6.071e-05,-1.254e-05,0.0,0 STARLINK-3588,1 51869U 22022T   24188.55342893 -.00001254  00000-0 -60710-4 0  9991,2 51869  53.2180 232.6216 0001389  92.0289 268.0862 15.08836676130852,6917.891,95.438,540.716,538.795,0.0
51869.0,STARLINK-3588,PAYLOAD,2024-07-06 19:38:28,15.0883658,0.0001385,53.2162,231.4303,87.2994,272.8157,-2.1778e-05,-6.34e-06,0.0,0 STARLINK-3588,1 51869U 22022T   24188.81838848 -.00000634  00000-0 -21778-4 0  9992,2 51869  53.2162 231.4303 0001385  87.2994 272.8157 15.08836580130899,6917.891,95.438,540.714,538.798,0.0
51869.0,STARLINK-3588,PAYLOAD,2024-07-07 08:21:33,15.08838733,0.0001514,53.2173,229.0542,103.1959,256.9202,8.0206e-05,9.89e-06,0.0,0 STARLINK-3588,1 51869U 22022T   24189.34830561  .00000989  00000-0  80206-4 0  9997,2 51869  53.2173 229.0542 0001514 103.1959 256.9202 15.08838733130977,6917.884,95.438,540.797,538.702,0.0
51869.0,STARLINK-3588,PAYLOAD,2024-07-08 06:36:57,15.08832939,0.0001385,53.2163,224.8882,88.7134,271.4017,0.00013458,1.854e-05,0.0,0 STARLINK-3588,1 51869U 22022T   24190.27567051  .00001854  00000-0  13458-3 0  9998,2 51869  53.2163 224.8882 0001385  88.7134 271.4017 15.08832939131110,6917.902,95.438,540.725,538.809,0.0
51869.0,STARLINK-3588,PAYLOAD,2024-07-08 19:20:02,15.08838697,0.0001342,53.2159,222.5089,87.3646,272.7499,0.00010551,1.392e-05,0.0,0 STARLINK-3588,1 51869U 22022T   24190.80558941  .00001392  00000-0  10551-3 0  9993,2 51869  53.2159 222.5089 0001342  87.3646 272.7499 15.08838697131198,6917.884,95.438,540.678,538.821,0.0
51869.0,STARLINK-3588,PAYLOAD,2024-07-09 09:38:31,15.08840892,0.0001397,53.2162,219.8327,87.3593,272.7559,3.7999e-05,3.17e-06,0.0,0 STARLINK-3588,1 51869U 22022T   24191.40174990  .00000317  00000-0  37999-4 0  9990,2 51869  53.2162 219.8327 0001397  87.3593 272.7559 15.08840892131284,6917.878,95.437,540.709,538.776,0.0
51869.0,STARLINK-3588,PAYLOAD,2024-07-10 07:53:55,15.08837476,0.0001404,53.216,215.6696,87.5003,272.615,3.181e-05,2.18e-06,0.0,0 STARLINK-3588,1 51869U 22022T   24192.32911308  .00000218  00000-0  31810-4 0  9990,2 51869  53.2160 215.6696 0001404  87.5003 272.6150 15.08837476131428,6917.888,95.438,540.724,538.782,0.0
51869.0,STARLINK-3588,PAYLOAD,2024-07-11 07:44:42,15.08834232,0.0001412,53.2159,211.2094,88.0378,272.0776,1.9292e-05,1.9e-07,0.0,0 STARLINK-3588,1 51869U 22022T   24193.32271816  .00000019  00000-0  19292-4 0  9993,2 51869  53.2159 211.2094 0001412  88.0378 272.0776 15.08834232131571,6917.898,95.438,540.74,538.786,0.0
51869.0,STARLINK-3588,PAYLOAD,2024-07-12 04:24:43,15.08839302,0.0001373,53.2155,207.3433,87.3938,272.7211,9.6929e-05,1.255e-05,0.0,0 STARLINK-3588,1 51869U 22022T   24194.18383461  .00001255  00000-0  96929-4 0  9993,2 51869  53.2155 207.3433 0001373  87.3938 272.7211 15.08839302131709,6917.883,95.438,540.697,538.798,0.0
51869.0,STARLINK-3588,PAYLOAD,2024-07-12 07:35:29,15.08840421,0.0001367,53.2156,206.7486,87.2558,272.8591,0.00010279,1.348e-05,0.0,0 STARLINK-3588,1 51869U 22022T   24194.31631402  .00001348  00000-0  10279-3 0  9995,2 51869  53.2156 206.7486 0001367  87.2558 272.8591 15.08840421131729,6917.879,95.438,540.69,538.798,0.0
51869.0,STARLINK-3588,PAYLOAD,2024-07-13 10:37:02,15.08845322,0.0001368,53.2158,201.6931,85.6517,274.4632,0.00012817,1.753e-05,0.0,0 STARLINK-3588,1 51869U 22022T   24195.44239056  .00001753  00000-0  12817-3 0  9999,2 51869  53.2158 201.6931 0001368  85.6517 274.4632 15.08845322131895,6917.864,95.437,540.675,538.783,0.0
51869.0,STARLINK-3588,PAYLOAD,2024-07-13 16:58:35,15.08842616,0.0001339,53.2154,200.5031,83.9218,276.1927,8.3038e-05,1.034e-05,0.0,0 STARLINK-3588,1 51869U 22022T   24195.70735319  .00001034  00000-0  83038-4 0  9997,2 51869  53.2154 200.5031 0001339  83.9218 276.1927 15.08842616131931,6917.872,95.437,540.664,538.811,0.0
51869.0,STARLINK-3588,PAYLOAD,2024-07-14 04:06:17,15.08842903,0.0001385,53.216,198.4218,85.0922,275.0228,3.1034e-05,2.06e-06,0.0,0 STARLINK-3588,1 51869U 22022T   24196.17103415  .00000206  00000-0  31034-4 0  9994,2 51869  53.2160 198.4218 0001385  85.0922 275.0228 15.08842903132006,6917.872,95.437,540.695,538.778,0.0
51869.0,STARLINK-3588,PAYLOAD,2024-07-14 07:17:03,15.08844055,0.0001389,53.216,197.8272,85.1359,274.9792,3.7789e-05,3.14e-06,0.0,0 STARLINK-3588,1 51869U 22022T   24196.30351269  .00000314  00000-0  37789-4 0  9994,2 51869  53.2160 197.8272 0001389  85.1359 274.9792 15.08844055132024,6917.868,95.437,540.694,538.772,0.0
51869.0,STARLINK-3588,PAYLOAD,2024-07-14 16:49:22,15.08841448,0.0001383,53.2159,196.0431,84.3691,275.7459,1.7513e-05,-9e-08,0.0,0 STARLINK-3588,1 51869U 22022T   24196.70095418 -.00000009  00000-0  17513-4 0  9994,2 51869  53.2159 196.0431 0001383  84.3691 275.7459 15.08841448132082,6917.876,95.437,540.698,538.784,0.0
51869.0,STARLINK-3588,PAYLOAD,2024-07-15 07:07:50,15.08841849,0.0001437,53.2163,193.3667,83.9627,276.1529,1.4714e-05,-5.4e-07,0.0,0 STARLINK-3588,1 51869U 22022T   24197.29711371 -.00000054  00000-0  14714-4 0  9992,2 51869  53.2163 193.3667 0001437  83.9627 276.1529 15.08841849132170,6917.875,95.437,540.734,538.746,0.0
51869.0,STARLINK-3588,PAYLOAD,2024-07-15 16:40:09,15.08840493,0.0001441,53.2164,191.5825,84.3454,275.7703,1.8594e-05,8e-08,0.0,0 STARLINK-3588,1 51869U 22022T   24197.69455450  .00000008  00000-0  18594-4 0  9997,2 51869  53.2164 191.5825 0001441  84.3454 275.7703 15.08840493132235,6917.879,95.438,540.741,538.747,0.0
51869.0,STARLINK-3588,PAYLOAD,2024-07-16 08:34:01,15.08837743,0.0001414,53.2161,188.6093,87.0103,273.1051,2.2593e-05,7.2e-07,0.0,0 STARLINK-3588,1 51869U 22022T   24198.35695670  .00000072  00000-0  22593-4 0  9996,2 51869  53.2161 188.6093 0001414  87.0103 273.1051 15.08837743132330,6917.887,95.438,540.73,538.774,0.0
51869.0,STARLINK-3588,PAYLOAD,2024-07-17 08:24:48,15.08839323,0.0001411,53.2161,184.1482,87.7231,272.3922,4.9197e-05,4.95e-06,0.0,0 STARLINK-3588,1 51869U 22022T   24199.35055778  .00000495  00000-0  49197-4 0  9994,2 51869  53.2161 184.1482 0001411  87.7231 272.3922 15.08839323132489,6917.882,95.438,540.724,538.771,0.0
51869.0,STARLINK-3588,PAYLOAD,2024-07-18 05:04:48,15.0884703,0.000136,53.2157,180.2816,91.9622,268.1526,0.00015689,2.21e-05,0.0,0 STARLINK-3588,1 51869U 22022T   24200.21167035  .00002210  00000-0  15689-3 0  9997,2 51869  53.2157 180.2816 0001360  91.9622 268.1526 15.08847030132618,6917.859,95.437,540.665,538.783,0.0
51869.0,STARLINK-3588,PAYLOAD,2024-07-18 08:15:34,15.08849722,0.0001371,53.2158,179.685,97.0323,263.0825,0.00015591,2.195e-05,0.0,0 STARLINK-3588,1 51869U 22022T   24200.34414805  .00002195  00000-0  15591-3 0  9995,2 51869  53.2158 179.6850 0001371  97.0323 263.0825 15.08849722132634,6917.851,95.437,540.664,538.767,0.0
51869.0,STARLINK-3588,PAYLOAD,2024-07-18 16:12:30,15.08837656,0.0001526,53.2158,178.1943,111.1009,249.0146,6.7341e-05,7.84e-06,0.0,0 STARLINK-3588,1 51869U 22022T   24200.67535716  .00000784  00000-0  67341-4 0  9999,2 51869  53.2158 178.1943 0001526 111.1009 249.0146 15.08837656132680,6917.888,95.438,540.808,538.697,0.0
51869.0,STARLINK-3588,PAYLOAD,2024-07-19 04:55:36,15.08838397,0.0001504,53.217,175.8208,87.2169,272.8995,1.1011e-05,-1.13e-06,0.0,0 STARLINK-3588,1 51869U 22022T   24201.20528085 -.00000113  00000-0  11011-4 0  9990,2 51869  53.2170 175.8208 0001504  87.2169 272.8995 15.08838397132766,6917.885,95.438,540.791,538.71,0.0
51869.0,STARLINK-3588,PAYLOAD,2024-07-20 04:46:22,15.08834493,0.0001573,53.2176,171.3587,98.1362,261.9808,0.00015904,2.244e-05,0.0,0 STARLINK-3588,1 51869U 22022T   24202.19887584  .00002244  00000-0  15904-3 0  9991,2 51869  53.2176 171.3587 0001573  98.1362 261.9808 15.08834493132917,6917.897,95.438,540.85,538.674,0.0
51869.0,STARLINK-3588,PAYLOAD,2024-07-21 04:37:10,15.08834771,0.000151,53.2174,166.901,94.4376,265.6789,1.9961e-05,3e-07,0.0,0 STARLINK-3588,1 51869U 22022T   24203.19248312  .00000030  00000-0  19961-4 0  9991,2 51869  53.2174 166.9010 0001510  94.4376 265.6789 15.08834771133066,6917.896,95.438,540.806,538.717,0.0
51869.0,STARLINK-3588,PAYLOAD,2024-07-22 04:27:57,15.08837421,0.0001414,53.2174,162.439,86.8401,273.2753,-1.5899e-05,-5.41e-06,0.0,0 STARLINK-3588,1 51869U 22022T   24204.18608643 -.00000541  00000-0 -15899-4 0  9993,2 51869  53.2174 162.4390 0001414  86.8401 273.2753 15.08837421133213,6917.888,95.438,540.731,538.775,0.0
51869.0,STARLINK-3588,PAYLOAD,2024-07-23 02:43:21,15.08843008,0.0001333,53.2174,158.2764,98.7664,261.348,0.00010626,1.404e-05,0.0,0 STARLINK-3588,1 51869U 22022T   24205.11344041  .00001404  00000-0  10626-3 0  9995,2 51869  53.2174 158.2764 0001333  98.7664 261.3480 15.08843008133352,6917.871,95.437,540.658,538.814,0.0
51869.0,STARLINK-3588,PAYLOAD,2024-07-23 13:51:03,15.08834371,0.000138,53.217,156.1894,87.0543,273.0607,6.6804e-05,7.75e-06,0.0,0 STARLINK-3588,1 51869U 22022T   24205.57712811  .00000775  00000-0  66804-4 0  9999,2 51869  53.2170 156.1894 0001380  87.0543 273.0607 15.08834371133420,6917.898,95.438,540.717,538.808,0.0
